{"type":"FeatureCollection","features":[{"type":"Feature","properties":{"name":"Valdivia","comuna":"Valdivia","cut":"14101","metro":null,"es_bbox":false},"geometry":{"type":"MultiPolygon","coordinates":[[[[-73.2294,-39.9237],[-73.2345,-39.9196],[-73.2454,-39.9178],[-73.2443,-39.9099],[-73.2508,-39.8988],[-73.251,-39.8898],[-73.2568,-39.8844],[-73.2597,-39.8751],[-73.2535,-39.872],[-73.2453,-39.8777],[-73.2274,-39.8831],[-73.2065,-39.8927],[-73.1802,-39.8878],[-73.1622,-39.9006],[-73.1619,-39.9105],[-73.152,-39.9068],[-73.1562,-39.8975],[-73.1547,-39.8854],[-73.1708,-39.8759],[-73.178,-39.8856],[-73.1936,-39.8868],[-73.2043,-39.891],[-73.2302,-39.8795],[-73.2379,-39.8792],[-73.2564,-39.8682],[-73.2667,-39.8669],[-73.2613,-39.8583],[-73.2635,-39.8438],[-73.2671,-39.8404],[-73.2528,-39.8321],[-73.2481,-39.8118],[-73.2438,-39.8089],[-73.2302,-39.818],[-73.2263,-39.8231],[-73.2165,-39.8222],[-73.2106,-39.8159],[-73.2275,-39.8187],[-73.2329,-39.812],[-73.2558,-39.7986],[-73.259,-39.7831],[-73.2492,-39.775],[-73.2493,-39.761],[-73.2439,-39.7547],[-73.2495,-39.7454],[-73.2419,-39.7358],[-73.2405,-39.7253],[-73.2318,-39.7298],[-73.2049,-39.7304],[-73.19337712765957,-39.7217],[-73.1263,-39.7217],[-73.1263,-39.9286],[-73.22581463414633,-39.9286],[-73.2294,-39.9237]]],[[[-73.2526,-39.7296],[-73.2687,-39.7391],[-73.2714,-39.7495],[-73.262,-39.7545],[-73.2583,-39.7697],[-73.2713,-39.7801],[-73.2799,-39.7979],[-73.2788,-39.8192],[-73.2654,-39.8315],[-73.2712,-39.842],[-73.2933,-39.8434],[-73.3006,-39.85],[-73.3101,-39.847],[-73.3241,-39.8544],[-73.3487,-39.8626],[-73.3641,-39.8633],[-73.38,-39.8703],[-73.386,-39.876],[-73.4003,-39.8748],[-73.4033,-39.8697],[-73.3944,-39.8617],[-73.3923,-39.848],[-73.4011,-39.8473],[-73.4048,-39.8241],[-73.3995,-39.8138],[-73.3973,-39.7971],[-73.3909,-39.7912],[-73.3931,-39.7802],[-73.3897,-39.7638],[-73.3918,-39.7495],[-73.3985,-39.7271],[-73.40272448979592,-39.7217],[-73.24475524475524,-39.7217],[-73.2526,-39.7296]]],[[[-73.2594,-39.7883],[-73.2568,-39.7983],[-73.2454,-39.8065],[-73.2579,-39.8255],[-73.2718,-39.805],[-73.2664,-39.7852],[-73.2594,-39.7883]]],[[[-73.2659,-39.8762],[-73.2792,-39.8856],[-73.2795,-39.8736],[-73.2697,-39.8703],[-73.2659,-39.8762]]],[[[-73.2787,-39.8485],[-73.2883,-39.8561],[-73.2934,-39.8485],[-73.2795,-39.8445],[-73.2787,-39.8485]]]]}}]}